[{"OBJECT_NAME":"STARLINK-31938","OBJECT_ID":"2024-098H","EPOCH":"2026-03-09T14:04:29.216928","MEAN_MOTION":15.27575057,"ECCENTRICITY":0.0002368,"INCLINATION":43.0016,"RA_OF_ASC_NODE":278.2884,"ARG_OF_PERICENTER":258.0482,"MEAN_ANOMALY":102.0104,"EPHEMERIS_TYPE":0,"CLASSIFICATION_TYPE":"U","NORAD_CAT_ID":59865,"ELEMENT_SET_NO":999,"REV_AT_EPOCH":10183,"BSTAR":0.00020509,"MEAN_MOTION_DOT":5.385e-5,"MEAN_MOTION_DDOT":0},{"OBJECT_NAME":"OBJECT H","OBJECT_ID":"2024-205H","EPOCH":"2026-03-09T23:10:36.271776","MEAN_MOTION":15.29110994,"ECCENTRICITY":0.00105089,"INCLINATION":97.4168,"RA_OF_ASC_NODE":147.1265,"ARG_OF_PERICENTER":38.7838,"MEAN_ANOMALY":321.4154,"EPHEMERIS_TYPE":0,"CLASSIFICATION_TYPE":"U","NORAD_CAT_ID":61901,"ELEMENT_SET_NO":999,"REV_AT_EPOCH":7354,"BSTAR":0.00059497566,"MEAN_MOTION_DOT":0.00016783,"MEAN_MOTION_DDOT":0}]
